[{"COMMENT":"GENERATED VIA SPACETRACK.ORG API","ORIGINATOR":"18 SPCS","NORAD_CAT_ID":"43477","OBJECT_NAME":"GRACE-FO 2","OBJECT_TYPE":"PAYLOAD","CLASSIFICATION_TYPE":"U","INTLDES":"18047B","EPOCH":"2023-11-26 12:06:06","EPOCH_MICROSECONDS":"99264","MEAN_MOTION":"15.27422007","ECCENTRICITY":"0.0016057","INCLINATION":"88.9804","RA_OF_ASC_NODE":"327.0828","ARG_OF_PERICENTER":"125.3174","MEAN_ANOMALY":"234.958","EPHEMERIS_TYPE":"0","ELEMENT_SET_NO":"999","REV_AT_EPOCH":"30676","BSTAR":"0.00019994","MEAN_MOTION_DOT":"0.00005411","MEAN_MOTION_DDOT":"0","FILE":"4107525","TLE_LINE0":"0 GRACE-FO 2","TLE_LINE1":"1 43477U 18047B   23330.50423726  .00005411  00000-0  19994-3 0  9991","TLE_LINE2":"2 43477  88.9804 327.0828 0016057 125.3174 234.9580 15.27422007306769","OBJECT_ID":"2018-047B","OBJECT_NUMBER":"43477","SEMIMAJOR_AXIS":"6861.659","PERIOD":"94.276","APOGEE":"494.542","PERIGEE":"472.506","DECAYED":"0"},{"COMMENT":"GENERATED VIA SPACETRACK.ORG API","ORIGINATOR":"18 SPCS","NORAD_CAT_ID":"43477","OBJECT_NAME":"GRACE-FO 2","OBJECT_TYPE":"PAYLOAD","CLASSIFICATION_TYPE":"U","INTLDES":"18047B","EPOCH":"2023-11-25 21:57:00","EPOCH_MICROSECONDS":"921600","MEAN_MOTION":"15.27419185","ECCENTRICITY":"0.0015975","INCLINATION":"88.9805","RA_OF_ASC_NODE":"327.1638","ARG_OF_PERICENTER":"127.2123","MEAN_ANOMALY":"233.0587","EPHEMERIS_TYPE":"0","ELEMENT_SET_NO":"999","REV_AT_EPOCH":"30667","BSTAR":"0.00026868","MEAN_MOTION_DOT":"0.00007261","MEAN_MOTION_DDOT":"0","FILE":"4106487","TLE_LINE0":"0 GRACE-FO 2","TLE_LINE1":"1 43477U 18047B   23329.91459400  .00007261  00000-0  26868-3 0  9995","TLE_LINE2":"2 43477  88.9805 327.1638 0015975 127.2123 233.0587 15.27419185306673","OBJECT_ID":"2018-047B","OBJECT_NUMBER":"43477","SEMIMAJOR_AXIS":"6861.668","PERIOD":"94.277","APOGEE":"494.494","PERIGEE":"472.571","DECAYED":"0"}]